NORAD_CAT_ID,OBJECT_NAME,OBJECT_TYPE,EPOCH,MEAN_MOTION,ECCENTRICITY,INCLINATION,RA_OF_ASC_NODE,ARG_OF_PERICENTER,MEAN_ANOMALY,BSTAR,MEAN_MOTION_DOT,MEAN_MOTION_DDOT,TLE_LINE0,TLE_LINE1,TLE_LINE2,SEMIMAJOR_AXIS,PERIOD,APOGEE,PERIGEE,DECAYED
52605.0,STARLINK-4000,PAYLOAD,2022-11-06 14:35:33,15.0882733,0.0002295,53.2177,356.786,39.677,320.4389,0.00067297,0.00010435,0.0,0 STARLINK-4000,1 52605U 22052H   22310.60802366  .00010435  00000-0  67297-3 0  9995,2 52605  53.2177 356.7860 0002295  39.6770 320.4389 15.08827330 27117,6917.919,95.438,541.372,538.196,0.0
52605.0,STARLINK-4000,PAYLOAD,2022-11-07 09:40:10,15.08857597,0.0002521,53.2173,353.222,33.3055,326.8095,0.00074826,0.00011646,0.0,0 STARLINK-4000,1 52605U 22052H   22311.40290046  .00011646  00000-0  74826-3 0  9991,2 52605  53.2173 353.2220 0002521  33.3055 326.8095 15.08857597 27239,6917.8269999999975,95.436,541.436,537.948,0.0
52605.0,STARLINK-4000,PAYLOAD,2022-11-07 14:26:20,15.08851761,0.0002764,53.2186,352.3273,36.4881,323.6299,0.00082948,0.00012942,0.0,0 STARLINK-4000,1 52605U 22052H   22311.60162043  .00012942  00000-0  82948-3 0  9992,2 52605  53.2186 352.3273 0002764  36.4881 323.6299 15.08851761 26890,6917.844,95.437,541.622,537.797,0.0
52605.0,STARLINK-4000,PAYLOAD,2022-11-08 09:30:56,15.08853787,0.0002251,53.2171,348.7597,36.5427,323.5719,0.0001066,1.409e-05,0.0,0 STARLINK-4000,1 52605U 22052H   22312.39649186  .00001409  00000-0  10660-3 0  9995,2 52605  53.2171 348.7597 0002251  36.5427 323.5719 15.08853787 27381,6917.8380000000025,95.437,541.26,538.146,0.0
52605.0,STARLINK-4000,PAYLOAD,2022-11-08 19:03:15,15.08862281,0.0002228,53.2173,346.9757,36.534,323.5803,0.0002876,4.295e-05,0.0,0 STARLINK-4000,1 52605U 22052H   22312.79392532  .00004295  00000-0  28760-3 0  9995,2 52605  53.2173 346.9757 0002228  36.5340 323.5803 15.08862281 27078,6917.812,95.436,541.219,538.136,0.0
52605.0,STARLINK-4000,PAYLOAD,2022-11-09 03:00:10,15.08870826,0.0002267,53.2184,345.4876,32.3502,327.7629,0.00047012,7.208e-05,0.0,0 STARLINK-4000,1 52605U 22052H   22313.12511776  .00007208  00000-0  47012-3 0  9994,2 52605  53.2184 345.4876 0002267  32.3502 327.7629 15.08870826 27495,6917.786,95.436,541.219,538.0830000000002,0.0
52605.0,STARLINK-4000,PAYLOAD,2022-11-09 07:46:19,15.08865895,0.000222,53.2182,344.5954,30.0972,330.0147,0.00028497,4.253e-05,0.0,0 STARLINK-4000,1 52605U 22052H   22313.32383491  .00004253  00000-0  28497-3 0  9990,2 52605  53.2182 344.5954 0002220  30.0972 330.0147 15.08865895 27150,6917.801,95.436,541.202,538.13,0.0
52605.0,STARLINK-4000,PAYLOAD,2022-11-09 14:07:52,15.08836071,0.0002664,53.2172,343.407,32.1336,327.9818,-0.00048198,-7.951e-05,0.0,0 STARLINK-4000,1 52605U 22052H   22313.58880390 -.00007951  00000-0 -48198-3 0  9998,2 52605  53.2172 343.4070 0002664  32.1336 327.9818 15.08836071 27564,6917.892,95.438,541.6,537.914,0.0
52605.0,STARLINK-4000,PAYLOAD,2022-11-10 12:23:17,15.08822614,0.000231,53.2169,339.2431,35.6566,324.458,-0.00017548,-3.079e-05,0.0,0 STARLINK-4000,1 52605U 22052H   22314.51617888 -.00003079  00000-0 -17548-3 0  9994,2 52605  53.2169 339.2431 0002310  35.6566 324.4580 15.08822614 27336,6917.934,95.439,541.3969999999998,538.2,0.0
52605.0,STARLINK-4000,PAYLOAD,2022-11-10 13:58:41,15.08823557,0.0002255,53.217,338.9457,35.6641,324.4501,-0.00010543,-1.965e-05,0.0,0 STARLINK-4000,1 52605U 22052H   22314.58241953 -.00001965  00000-0 -10543-3 0  9997,2 52605  53.2170 338.9457 0002255  35.6641 324.4501 15.08823557 27345,6917.931,95.439,541.356,538.236,0.0
52605.0,STARLINK-4000,PAYLOAD,2022-11-11 01:06:23,15.08826421,0.0002295,53.2168,336.8638,35.9832,324.1314,0.00050892,7.818e-05,0.0,0 STARLINK-4000,1 52605U 22052H   22315.04610673  .00007818  00000-0  50892-3 0  9990,2 52605  53.2168 336.8638 0002295  35.9832 324.1314 15.08826421 27789,6917.922,95.438,541.375,538.1990000000002,0.0
52605.0,STARLINK-4000,PAYLOAD,2022-11-11 10:38:42,15.08840444,0.0002273,53.2165,335.0799,36.7867,323.3281,0.00076698,0.0001194,0.0,0 STARLINK-4000,1 52605U 22052H   22315.44354675  .00011940  00000-0  76698-3 0  9994,2 52605  53.2165 335.0799 0002273  36.7867 323.3281 15.08840444 27479,6917.879,95.438,541.316,538.172,0.0
52605.0,STARLINK-4000,PAYLOAD,2022-11-11 18:35:38,15.08845527,0.0002327,53.2164,333.593,37.0866,323.0287,0.00051248,7.879e-05,0.0,0 STARLINK-4000,1 52605U 22052H   22315.77474574  .00007879  00000-0  51248-3 0  9991,2 52605  53.2164 333.5930 0002327  37.0866 323.0287 15.08845527 27527,6917.863,95.437,541.3380000000002,538.119,0.0
52605.0,STARLINK-4000,PAYLOAD,2022-11-12 08:54:06,15.08845226,0.0002394,53.217,330.9163,34.3348,325.7798,0.00019865,2.875e-05,0.0,0 STARLINK-4000,1 52605U 22052H   22316.37090412  .00002875  00000-0  19865-3 0  9993,2 52605  53.2170 330.9163 0002394  34.3348 325.7798 15.08845226 27984,6917.864000000001,95.437,541.386,538.073,0.0
52605.0,STARLINK-4000,PAYLOAD,2022-11-12 18:26:25,15.08842311,0.0002478,53.2173,329.1325,36.3205,323.7955,0.00018145,2.601e-05,0.0,0 STARLINK-4000,1 52605U 22052H   22316.76834566  .00002601  00000-0  18145-3 0  9999,2 52605  53.2173 329.1325 0002478  36.3205 323.7955 15.08842311 27675,6917.873000000001,95.437,541.453,538.024,0.0
52605.0,STARLINK-4000,PAYLOAD,2022-11-13 10:20:16,15.08845075,0.0002427,53.2171,326.1594,38.6652,321.4513,0.00011441,1.533e-05,0.0,0 STARLINK-4000,1 52605U 22052H   22317.43074391  .00001533  00000-0  11441-3 0  9991,2 52605  53.2171 326.1594 0002427  38.6652 321.4513 15.08845075 28141,6917.865,95.437,541.409,538.0509999999998,0.0
52605.0,STARLINK-4000,PAYLOAD,2022-11-13 11:55:39,15.08849728,0.0002538,53.2178,325.8633,35.0018,325.1140000000001,0.00018144,2.601e-05,0.0,0 STARLINK-4000,1 52605U 22052H   22317.49698149  .00002601  00000-0  18144-3 0  9994,2 52605  53.2178 325.8633 0002538  35.0018 325.1140 15.08849728 27783,6917.851,95.437,541.471,537.96,0.0
52605.0,STARLINK-4000,PAYLOAD,2022-11-14 10:11:03,15.08838412,0.0002378,53.2185,321.7003,38.6592,321.457,5.4634e-05,5.81e-06,0.0,0 STARLINK-4000,1 52605U 22052H   22318.42434286  .00000581  00000-0  54634-4 0  9998,2 52605  53.2185 321.7003 0002378  38.6592 321.4570 15.08838412 27925,6917.885,95.438,541.395,538.105,0.0
52605.0,STARLINK-4000,PAYLOAD,2022-11-14 11:46:26,15.08841775,0.0002379,53.218,321.4026,36.8867,323.2288,-5.5563e-06,-3.77e-06,0.0,0 STARLINK-4000,1 52605U 22052H   22318.49058147 -.00000377  00000-0 -55563-5 0  9991,2 52605  53.2180 321.4026 0002379  36.8867 323.2288 15.08841775 28303,6917.875,95.437,541.386,538.094,0.0
52605.0,STARLINK-4000,PAYLOAD,2022-11-15 10:01:50,15.0883577,0.0002431,53.2176,317.2396,36.8732,323.2427,-2.8603e-05,-7.44e-06,0.0,0 STARLINK-4000,1 52605U 22052H   22319.41794647 -.00000744  00000-0 -28603-4 0  9998,2 52605  53.2176 317.2396 0002431  36.8732 323.2427 15.08835770 28449,6917.893,95.438,541.44,538.077,0.0
52605.0,STARLINK-4000,PAYLOAD,2022-11-15 11:37:13,15.08833861,0.000244,53.2175,316.9421,36.9778,323.1382,-4.7758e-05,-1.048e-05,0.0,0 STARLINK-4000,1 52605U 22052H   22319.48418947 -.00001048  00000-0 -47758-4 0  9991,2 52605  53.2175 316.9421 0002440  36.9778 323.1382 15.08833861 28082,6917.899,95.438,541.452,538.076,0.0
52605.0,STARLINK-4000,PAYLOAD,2022-11-16 11:28:01,15.08828518,0.0002206,53.2177,312.4805,37.1698,322.9446,-1.3021e-05,-4.95e-06,0.0,0 STARLINK-4000,1 52605U 22052H   22320.47779264 -.00000495  00000-0 -13021-4 0  9995,2 52605  53.2177 312.4805 0002206  37.1698 322.9446 15.08828518 28233,6917.915,95.438,541.307,538.254,0.0
52605.0,STARLINK-4000,PAYLOAD,2022-11-16 16:14:10,15.08832831,0.0002248,53.2182,311.5886,38.3687,321.7465,5.3314e-06,-2.03e-06,0.0,0 STARLINK-4000,1 52605U 22052H   22320.67651016 -.00000203  00000-0  53314-5 0  9997,2 52605  53.2182 311.5886 0002248  38.3687 321.7465 15.08832831 28630,6917.901999999999,95.438,541.322,538.212,0.0
52605.0,STARLINK-4000,PAYLOAD,2022-11-17 08:08:01,15.08841377,0.0002194,53.2179,308.6154,37.9504,322.1642,6.714899999999999e-05,7.81e-06,0.0,0 STARLINK-4000,1 52605U 22052H   22321.33890633  .00000781  00000-0  67149-4 0  9991,2 52605  53.2179 308.6154 0002194  37.9504 322.1642 15.08841377 28732,6917.876,95.437,541.259,538.2230000000002,0.0
52605.0,STARLINK-4000,PAYLOAD,2022-11-18 07:58:49,15.08836445,0.0002335,53.2191,304.1565,39.391,320.7251,-1.1909e-05,-4.78e-06,0.0,0 STARLINK-4000,1 52605U 22052H   22322.33251461 -.00000478  00000-0 -11909-4 0  9990,2 52605  53.2191 304.1565 0002335  39.3910 320.7251 15.08836445 28883,6917.891,95.438,541.372,538.141,0.0
52605.0,STARLINK-4000,PAYLOAD,2022-11-18 11:09:35,15.08835618,0.0002254,53.218,303.5602,40.9285,319.1876,9.1809e-06,-1.42e-06,0.0,0 STARLINK-4000,1 52605U 22052H   22322.46499528 -.00000142  00000-0  91809-5 0  9997,2 52605  53.2180 303.5602 0002254  40.9285 319.1876 15.08835618 28537,6917.894,95.438,541.318,538.1990000000002,0.0
52605.0,STARLINK-4000,PAYLOAD,2022-11-19 15:46:31,15.08841001,0.0002288,53.2172,298.2077,40.9002,319.2162,2.0725e-05,4.2e-07,0.0,0 STARLINK-4000,1 52605U 22052H   22323.65731342  .00000042  00000-0  20725-4 0  9998,2 52605  53.2172 298.2077 0002288  40.9002 319.2162 15.08841001 29081,6917.877,95.437,541.325,538.16,0.0
52605.0,STARLINK-4000,PAYLOAD,2022-11-20 07:40:22,15.08850243,0.0002116,53.2186,295.2323,52.3315,307.7869,6.8706e-05,8.06e-06,0.0,0 STARLINK-4000,1 52605U 22052H   22324.31970522  .00000806  00000-0  68706-4 0  9996,2 52605  53.2186 295.2323 0002116  52.3315 307.7869 15.08850243 29186,6917.849,95.437,541.178,538.25,0.0
52605.0,STARLINK-4000,PAYLOAD,2022-11-20 15:37:18,15.08845321,0.0002556,53.2186,293.7455,43.1036,317.0156,0.00015179,2.129e-05,0.0,0 STARLINK-4000,1 52605U 22052H   22324.65090557  .00002129  00000-0  15179-3 0  9999,2 52605  53.2186 293.7455 0002556  43.1036 317.0156 15.08845321 28869,6917.864000000001,95.437,541.497,537.961,0.0
